{
  "data": [
    { "zip": "36000", "city": "Autaugaville", "state": "AL", "lat": 32.4312, "lng": -86.6549 },
    { "zip": "36001", "city": "Autaugaville", "state": "AL", "lat": 32.4312, "lng": -86.6549 },
    { "zip": "36002", "city": "Autaugaville", "state": "AL", "lat": 32.4312, "lng": -86.6549 },
    { "zip": "36003", "city": "Autaugaville", "state": "AL", "lat": 32.4312, "lng": -86.6549 },
    { "zip": "36004", "city": "Autaugaville", "state": "AL", "lat": 32.4312, "lng": -86.6549 },
    { "zip": "36005", "city": "Autaugaville", "state": "AL", "lat": 32.4312, "lng": -86.6549 },
    { "zip": "36006", "city": "Autaugaville", "state": "AL", "lat": 32.4312, "lng": -86.6549 },
    { "zip": "36007", "city": "Autaugaville", "state": "AL", "lat": 32.4312, "lng": -86.6549 },
    { "zip": "36008", "city": "Autaugaville", "state": "AL", "lat": 32.4312, "lng": -86.6549 },
    { "zip": "36009", "city": "Autaugaville", "state": "AL", "lat": 32.4312, "lng": -86.6549 },
    { "zip": "36010", "city": "Autaugaville", "state": "AL", "lat": 32.4312, "lng": -86.6549 },
    { "zip": "36011", "city": "Millbrook", "state": "AL", "lat": 32.5002, "lng": -86.3691 },
    { "zip": "36012", "city": "Deatsville", "state": "AL", "lat": 32.5997, "lng": -86.3240 },
    { "zip": "36013", "city": "Columbus", "state": "GA", "lat": 32.5376, "lng": -84.8661 },
    { "zip": "36014", "city": "Hardaway", "state": "AL", "lat": 32.2365, "lng": -85.7324 },
    { "zip": "36015", "city": "Hayneville", "state": "AL", "lat": 32.1875, "lng": -86.5782 },
    { "zip": "36016", "city": "Gantt", "state": "AL", "lat": 31.5273, "lng": -86.5873 },
    { "zip": "36017", "city": "Clio", "state": "AL", "lat": 31.7092, "lng": -85.6097 },
    { "zip": "36018", "city": "Tuskegee", "state": "AL", "lat": 32.4325, "lng": -85.7064 },
    { "zip": "36019", "city": "Perote", "state": "AL", "lat": 31.7326, "lng": -85.2830 },
    { "zip": "36020", "city": "Prattville", "state": "AL", "lat": 32.4561, "lng": -86.4392 },
    { "zip": "36021", "city": "Elmore", "state": "AL", "lat": 32.5630, "lng": -86.1346 },
    { "zip": "36022", "city": "Eclectic", "state": "AL", "lat": 32.6412, "lng": -86.0433 },
    { "zip": "36023", "city": "East Tallassee", "state": "AL", "lat": 32.5448, "lng": -85.8982 },
    { "zip": "36024", "city": "Fort Deposit", "state": "AL", "lat": 31.9871, "lng": -86.5902 },
    { "zip": "36025", "city": "Hayneville", "state": "AL", "lat": 32.1875, "lng": -86.5782 },
    { "zip": "36026", "city": "Gantt", "state": "AL", "lat": 31.5273, "lng": -86.5873 },
    { "zip": "36027", "city": "Banks", "state": "AL", "lat": 31.9925, "lng": -85.9402 },
    { "zip": "36028", "city": "Clayton", "state": "AL", "lat": 31.9084, "lng": -85.7159 },
    { "zip": "36029", "city": "Fitzpatrick", "state": "AL", "lat": 32.0818, "lng": -85.9051 },
    { "zip": "36030", "city": "Forest Home", "state": "AL", "lat": 31.8991, "lng": -86.1789 },
    { "zip": "36031", "city": "Fort Davis", "state": "AL", "lat": 32.0619, "lng": -85.9626 },
    { "zip": "36032", "city": "Fitzpatrick", "state": "AL", "lat": 32.0759, "lng": -85.9619 },
    { "zip": "36033", "city": "Georgiana", "state": "AL", "lat": 31.6287, "lng": -86.7417 },
    { "zip": "36034", "city": "Goshen", "state": "AL", "lat": 31.7207, "lng": -86.1417 },
    { "zip": "36035", "city": "Gantt", "state": "AL", "lat": 31.5127, "lng": -86.5362 },
    { "zip": "36036", "city": "Grady", "state": "AL", "lat": 31.7770, "lng": -86.1173 },
    { "zip": "36037", "city": "Greenville", "state": "AL", "lat": 31.8289, "lng": -86.6171 },
    { "zip": "36038", "city": "Gantt", "state": "AL", "lat": 31.5273, "lng": -86.5873 },
    { "zip": "36039", "city": "Hayneville", "state": "AL", "lat": 32.1875, "lng": -86.5782 },
    { "zip": "36040", "city": "Hayneville", "state": "AL", "lat": 32.1875, "lng": -86.5782 },
    { "zip": "36041", "city": "Hardaway", "state": "AL", "lat": 32.2365, "lng": -85.7324 },
    { "zip": "36042", "city": "Autaugaville", "state": "AL", "lat": 32.4312, "lng": -86.6549 },
    { "zip": "36043", "city": "Hope Hull", "state": "AL", "lat": 32.2908, "lng": -86.3724 },
    { "zip": "36044", "city": "Kinston", "state": "AL", "lat": 31.2760, "lng": -86.1806 },
    { "zip": "36045", "city": "Lowndesboro", "state": "AL", "lat": 32.3005, "lng": -86.6070 },
    { "zip": "36046", "city": "Luverne", "state": "AL", "lat": 31.7139, "lng": -86.2622 },
    { "zip": "36047", "city": "Maplesville", "state": "AL", "lat": 32.8089, "lng": -87.2409 },
    { "zip": "36048", "city": "Millbrook", "state": "AL", "lat": 32.5002, "lng": -86.3691 },
    { "zip": "36049", "city": "Marbury", "state": "AL", "lat": 32.6600, "lng": -86.5151 },
    { "zip": "36050", "city": "Montgomery", "state": "AL", "lat": 32.3674, "lng": -86.2700 },
    { "zip": "36051", "city": "Marbury", "state": "AL", "lat": 32.6600, "lng": -86.5151 },
    { "zip": "36052", "city": "Mathews", "state": "AL", "lat": 31.9749, "lng": -86.0435 },
    { "zip": "36053", "city": "Mc Kenzie", "state": "AL", "lat": 31.5275, "lng": -86.7216 },
    { "zip": "36054", "city": "Millbrook", "state": "AL", "lat": 32.5002, "lng": -86.3691 },
    { "zip": "36055", "city": "Montgomery", "state": "AL", "lat": 32.3563, "lng": -86.3159 },
    { "zip": "36056", "city": "Mount Meigs", "state": "AL", "lat": 32.3252, "lng": -86.1065 },
    { "zip": "36057", "city": "Mount Willing", "state": "AL", "lat": 32.0145, "lng": -86.9479 },
    { "zip": "36058", "city": "Notasulga", "state": "AL", "lat": 32.5616, "lng": -85.6750 },
    { "zip": "36059", "city": "Perote", "state": "AL", "lat": 31.7326, "lng": -85.2830 },
    { "zip": "36060", "city": "Phenix City", "state": "AL", "lat": 32.4702, "lng": -85.0009 },
    { "zip": "36061", "city": "Perote", "state": "AL", "lat": 31.7326, "lng": -85.2830 },
    { "zip": "36062", "city": "Petrey", "state": "AL", "lat": 31.7609, "lng": -86.3882 },
    { "zip": "36063", "city": "Pike Road", "state": "AL", "lat": 32.2934, "lng": -86.0374 },
    { "zip": "36064", "city": "Pine Level", "state": "AL", "lat": 32.1847, "lng": -86.2053 },
    { "zip": "36065", "city": "Ramer", "state": "AL", "lat": 31.8937, "lng": -86.1179 },
    { "zip": "36066", "city": "Prattville", "state": "AL", "lat": 32.4561, "lng": -86.4392 },
    { "zip": "36067", "city": "Prattville", "state": "AL", "lat": 32.4561, "lng": -86.4392 },
    { "zip": "36068", "city": "Prattville", "state": "AL", "lat": 32.4561, "lng": -86.4392 },
    { "zip": "36069", "city": "Prattville", "state": "AL", "lat": 32.4561, "lng": -86.4392 },
    { "zip": "36070", "city": "Rutledge", "state": "AL", "lat": 31.7135, "lng": -86.3021 },
    { "zip": "36071", "city": "Rutledge", "state": "AL", "lat": 31.7135, "lng": -86.3021 },
    { "zip": "36072", "city": "Sardis", "state": "AL", "lat": 32.0871, "lng": -86.1200 },
    { "zip": "36073", "city": "Shorter", "state": "AL", "lat": 32.4581, "lng": -85.9021 },
    { "zip": "36074", "city": "Tallassee", "state": "AL", "lat": 32.5456, "lng": -85.8942 },
    { "zip": "36075", "city": "Shorter", "state": "AL", "lat": 32.4581, "lng": -85.9021 },
    { "zip": "36076", "city": "Tuskegee", "state": "AL", "lat": 32.4331, "lng": -85.7109 },
    { "zip": "36077", "city": "Tuskegee Institute", "state": "AL", "lat": 32.4255, "lng": -85.6842 },
    { "zip": "36078", "city": "Tallassee", "state": "AL", "lat": 32.5429, "lng": -85.9053 },
    { "zip": "36079", "city": "Tuskegee", "state": "AL", "lat": 32.4331, "lng": -85.7109 },
    { "zip": "36080", "city": "Tuskegee", "state": "AL", "lat": 32.4209, "lng": -85.6910 },
    { "zip": "36081", "city": "Tuskegee", "state": "AL", "lat": 32.4209, "lng": -85.6910 },
    { "zip": "36082", "city": "Tuskegee", "state": "AL", "lat": 32.4209, "lng": -85.6910 },
    { "zip": "36083", "city": "Tuskegee Institute", "state": "AL", "lat": 32.4234, "lng": -85.6803 },
    { "zip": "36084", "city": "Tuskegee Institute", "state": "AL", "lat": 32.4234, "lng": -85.6803 },
    { "zip": "36085", "city": "Tuskegee Institute", "state": "AL", "lat": 32.4234, "lng": -85.6803 },
    { "zip": "36086", "city": "Union Springs", "state": "AL", "lat": 32.1482, "lng": -85.7097 },
    { "zip": "36087", "city": "Union Springs", "state": "AL", "lat": 32.1482, "lng": -85.7097 },
    { "zip": "36088", "city": "Troy", "state": "AL", "lat": 31.8012, "lng": -85.9759 },
    { "zip": "36089", "city": "Union Springs", "state": "AL", "lat": 32.1482, "lng": -85.7097 },
    { "zip": "36090", "city": "Wetumpka", "state": "AL", "lat": 32.5424, "lng": -86.2038 },
    { "zip": "36091", "city": "Verbena", "state": "AL", "lat": 32.8389, "lng": -86.5549 },
    { "zip": "36092", "city": "Wetumpka", "state": "AL", "lat": 32.5149, "lng": -86.1450 },
    { "zip": "36093", "city": "Wetumpka", "state": "AL", "lat": 32.5016, "lng": -86.1314 },
    { "zip": "36094", "city": "Wetumpka", "state": "AL", "lat": 32.5231, "lng": -86.2063 },
    { "zip": "36095", "city": "Hope Hull", "state": "AL", "lat": 32.3481, "lng": -86.4094 },
    { "zip": "36096", "city": "Mathews", "state": "AL", "lat": 31.9749, "lng": -86.0435 },
    { "zip": "36097", "city": "Tuskegee Institute", "state": "AL", "lat": 32.4234, "lng": -85.6803 },
    { "zip": "36098", "city": "Tuskegee Institute", "state": "AL", "lat": 32.4234, "lng": -85.6803 },
    { "zip": "36099", "city": "Tuskegee Institute", "state": "AL", "lat": 32.4234, "lng": -85.6803 }
  ]
}
